[{"OBJECT_NAME":"OBJECT D","OBJECT_ID":"2024-173D","EPOCH":"2026-03-09T23:30:29.956896","MEAN_MOTION":15.27005733,"ECCENTRICITY":0.00090093,"INCLINATION":97.3606,"RA_OF_ASC_NODE":149.3901,"ARG_OF_PERICENTER":241.6081,"MEAN_ANOMALY":118.425,"EPHEMERIS_TYPE":0,"CLASSIFICATION_TYPE":"U","NORAD_CAT_ID":61230,"ELEMENT_SET_NO":999,"REV_AT_EPOCH":8130,"BSTAR":0.00072064626,"MEAN_MOTION_DOT":0.00019078,"MEAN_MOTION_DDOT":0},{"OBJECT_NAME":"STARLINK-32881","OBJECT_ID":"2025-031S","EPOCH":"2026-03-09T06:32:17.260800","MEAN_MOTION":15.2757529,"ECCENTRICITY":0.0001164,"INCLINATION":43.0013,"RA_OF_ASC_NODE":145.4957,"ARG_OF_PERICENTER":231.6064,"MEAN_ANOMALY":128.4683,"EPHEMERIS_TYPE":0,"CLASSIFICATION_TYPE":"U","NORAD_CAT_ID":62997,"ELEMENT_SET_NO":999,"REV_AT_EPOCH":6103,"BSTAR":0.0011892361,"MEAN_MOTION_DOT":0.00032603,"MEAN_MOTION_DDOT":0}]
